[Satellite]
VERSION=1.1
NAME=IRIDIUM 115
NICKNAME=IRIDIUM 115
TLE1=1 42806U 17039D   17186.19670328  .00000194  00000-0  19773-4 0  9994
TLE2=2 42806  86.6640 279.6465 0013890 197.1926 162.8830 14.84295107  1388
